[{"OBJECT_NAME":"STARLINK-6307","OBJECT_ID":"2023-065AC","EPOCH":"2026-03-09T10:33:40.277664","MEAN_MOTION":15.02551277,"ECCENTRICITY":0.00020122,"INCLINATION":43.0046,"RA_OF_ASC_NODE":198.9845,"ARG_OF_PERICENTER":288.6025,"MEAN_ANOMALY":71.4598,"EPHEMERIS_TYPE":0,"CLASSIFICATION_TYPE":"U","NORAD_CAT_ID":56529,"ELEMENT_SET_NO":999,"REV_AT_EPOCH":15673,"BSTAR":1.0166752e-5,"MEAN_MOTION_DOT":-6.6e-7,"MEAN_MOTION_DDOT":0},{"OBJECT_NAME":"PEGASUS R\/B","OBJECT_ID":"1998-071B","EPOCH":"2026-03-09T18:27:50.570784","MEAN_MOTION":15.03047703,"ECCENTRICITY":0.0004531,"INCLINATION":69.9123,"RA_OF_ASC_NODE":198.9358,"ARG_OF_PERICENTER":7.5622,"MEAN_ANOMALY":352.5606,"EPHEMERIS_TYPE":0,"CLASSIFICATION_TYPE":"U","NORAD_CAT_ID":25561,"ELEMENT_SET_NO":999,"REV_AT_EPOCH":48091,"BSTAR":0.00030278547,"MEAN_MOTION_DOT":3.992e-5,"MEAN_MOTION_DDOT":0}]
